{"fetched_at":"2026-07-21T17:53:33.243Z","source":"https://celestrak.org/NORAD/elements/gp.php?NAME=ICEYE&FORMAT=JSON","constellation":"iceye","records":[{"OBJECT_NAME":"ICEYE-X2","OBJECT_ID":"2018-099AU","EPOCH":"2026-07-21T06:56:15.218592","CLASSIFICATION_TYPE":"U","MEAN_MOTION":15.18084297,"ECCENTRICITY":0.00105666,"INCLINATION":97.4334,"RA_OF_ASC_NODE":255.5337,"ARG_OF_PERICENTER":174.2614,"MEAN_ANOMALY":185.8743,"EPHEMERIS_TYPE":0,"NORAD_CAT_ID":43800,"ELEMENT_SET_NO":999,"REV_AT_EPOCH":41799,"BSTAR":0.00024767339,"MEAN_MOTION_DOT":0.00004987,"MEAN_MOTION_DDOT":0},{"OBJECT_NAME":"ICEYE-X4","OBJECT_ID":"2019-038D","EPOCH":"2026-07-21T06:42:32.446080","CLASSIFICATION_TYPE":"U","MEAN_MOTION":15.29964924,"ECCENTRICITY":0.00134981,"INCLINATION":97.8748,"RA_OF_ASC_NODE":237.2116,"ARG_OF_PERICENTER":176.9057,"MEAN_ANOMALY":183.2268,"EPHEMERIS_TYPE":0,"NORAD_CAT_ID":44390,"ELEMENT_SET_NO":999,"REV_AT_EPOCH":38701,"BSTAR":0.00030300613,"MEAN_MOTION_DOT":0.0000873,"MEAN_MOTION_DDOT":0},{"OBJECT_NAME":"ICEYE-X7","OBJECT_ID":"2020-068L","EPOCH":"2026-07-21T07:18:38.032704","CLASSIFICATION_TYPE":"U","MEAN_MOTION":15.32177512,"ECCENTRICITY":0.00067164,"INCLINATION":97.7513,"RA_OF_ASC_NODE":170.4023,"ARG_OF_PERICENTER":188.8945,"MEAN_ANOMALY":171.2178,"EPHEMERIS_TYPE":0,"NORAD_CAT_ID":46496,"ELEMENT_SET_NO":999,"REV_AT_EPOCH":32001,"BSTAR":0.00027328745,"MEAN_MOTION_DOT":0.00008412,"MEAN_MOTION_DDOT":0},{"OBJECT_NAME":"ICEYE-X6","OBJECT_ID":"2020-068M","EPOCH":"2026-07-21T05:47:13.067808","CLASSIFICATION_TYPE":"U","MEAN_MOTION":15.04686485,"ECCENTRICITY":0.00066644,"INCLINATION":98.0993,"RA_OF_ASC_NODE":197.5473,"ARG_OF_PERICENTER":352.0832,"MEAN_ANOMALY":8.0287,"EPHEMERIS_TYPE":0,"NORAD_CAT_ID":46497,"ELEMENT_SET_NO":999,"REV_AT_EPOCH":31835,"BSTAR":0.00011329875,"MEAN_MOTION_DOT":0.00001527,"MEAN_MOTION_DDOT":0},{"OBJECT_NAME":"ICEYE-X21","OBJECT_ID":"2023-001AS","EPOCH":"2026-06-24T05:11:18.420288","CLASSIFICATION_TYPE":"U","MEAN_MOTION":16.24069885,"ECCENTRICITY":0.00123774,"INCLINATION":97.3001,"RA_OF_ASC_NODE":262.6152,"ARG_OF_PERICENTER":285.9702,"MEAN_ANOMALY":74.0225,"EPHEMERIS_TYPE":0,"NORAD_CAT_ID":55049,"ELEMENT_SET_NO":999,"REV_AT_EPOCH":19475,"BSTAR":0.000602142,"MEAN_MOTION_DOT":0.01585954,"MEAN_MOTION_DDOT":0.000002396838},{"OBJECT_NAME":"ICEYE-X25","OBJECT_ID":"2023-084AH","EPOCH":"2026-07-21T06:29:53.110176","CLASSIFICATION_TYPE":"U","MEAN_MOTION":15.63078099,"ECCENTRICITY":0.00046485,"INCLINATION":97.5918,"RA_OF_ASC_NODE":350.9538,"ARG_OF_PERICENTER":166.2106,"MEAN_ANOMALY":193.9279,"EPHEMERIS_TYPE":0,"NORAD_CAT_ID":56963,"ELEMENT_SET_NO":999,"REV_AT_EPOCH":17329,"BSTAR":0.00028392905,"MEAN_MOTION_DOT":0.00025747,"MEAN_MOTION_DDOT":0},{"OBJECT_NAME":"ICEYE-X31","OBJECT_ID":"2023-174AJ","EPOCH":"2026-07-21T05:36:52.138656","CLASSIFICATION_TYPE":"U","MEAN_MOTION":15.35299101,"ECCENTRICITY":0.00032763,"INCLINATION":97.3763,"RA_OF_ASC_NODE":277.9871,"ARG_OF_PERICENTER":169.5933,"MEAN_ANOMALY":190.5379,"EPHEMERIS_TYPE":0,"NORAD_CAT_ID":58288,"ELEMENT_SET_NO":999,"REV_AT_EPOCH":14997,"BSTAR":0.00038890338,"MEAN_MOTION_DOT":0.0001326,"MEAN_MOTION_DDOT":0},{"OBJECT_NAME":"ICEYE-X34","OBJECT_ID":"2023-174AQ","EPOCH":"2026-07-20T19:05:50.434368","CLASSIFICATION_TYPE":"U","MEAN_MOTION":15.72581664,"ECCENTRICITY":0.0002278,"INCLINATION":97.3848,"RA_OF_ASC_NODE":294.7895,"ARG_OF_PERICENTER":229.1915,"MEAN_ANOMALY":130.9151,"EPHEMERIS_TYPE":0,"NORAD_CAT_ID":58294,"ELEMENT_SET_NO":999,"REV_AT_EPOCH":15101,"BSTAR":0.00097581778,"MEAN_MOTION_DOT":0.00132125,"MEAN_MOTION_DDOT":0},{"OBJECT_NAME":"ICEYE-X35","OBJECT_ID":"2023-174AY","EPOCH":"2026-07-21T07:15:37.994112","CLASSIFICATION_TYPE":"U","MEAN_MOTION":15.5559549,"ECCENTRICITY":0.00071954,"INCLINATION":97.3773,"RA_OF_ASC_NODE":287.8956,"ARG_OF_PERICENTER":87.6903,"MEAN_ANOMALY":272.5175,"EPHEMERIS_TYPE":0,"NORAD_CAT_ID":58302,"ELEMENT_SET_NO":999,"REV_AT_EPOCH":15064,"BSTAR":0.00064875504,"MEAN_MOTION_DOT":0.00044576,"MEAN_MOTION_DDOT":0},{"OBJECT_NAME":"ICEYE-X38","OBJECT_ID":"2024-043C","EPOCH":"2026-07-21T05:50:23.114976","CLASSIFICATION_TYPE":"U","MEAN_MOTION":15.13122992,"ECCENTRICITY":0.00018309,"INCLINATION":97.8444,"RA_OF_ASC_NODE":346.9413,"ARG_OF_PERICENTER":2.0161,"MEAN_ANOMALY":358.1076,"EPHEMERIS_TYPE":0,"NORAD_CAT_ID":59100,"ELEMENT_SET_NO":999,"REV_AT_EPOCH":11682,"BSTAR":0.00017528966,"MEAN_MOTION_DOT":0.00003035,"MEAN_MOTION_DDOT":0},{"OBJECT_NAME":"ICEYE-X37","OBJECT_ID":"2024-043E","EPOCH":"2026-07-21T03:03:51.498432","CLASSIFICATION_TYPE":"U","MEAN_MOTION":15.06319386,"ECCENTRICITY":0.00139642,"INCLINATION":97.835,"RA_OF_ASC_NODE":339.6737,"ARG_OF_PERICENTER":252.0057,"MEAN_ANOMALY":107.9647,"EPHEMERIS_TYPE":0,"NORAD_CAT_ID":59102,"ELEMENT_SET_NO":999,"REV_AT_EPOCH":13019,"BSTAR":0.00020100334,"MEAN_MOTION_DOT":0.00002895,"MEAN_MOTION_DDOT":0},{"OBJECT_NAME":"ICEYE-X36","OBJECT_ID":"2024-043F","EPOCH":"2026-07-21T04:15:58.247136","CLASSIFICATION_TYPE":"U","MEAN_MOTION":15.07263807,"ECCENTRICITY":0.00057693,"INCLINATION":97.8411,"RA_OF_ASC_NODE":340.8681,"ARG_OF_PERICENTER":190.025,"MEAN_ANOMALY":170.0862,"EPHEMERIS_TYPE":0,"NORAD_CAT_ID":59103,"ELEMENT_SET_NO":999,"REV_AT_EPOCH":13026,"BSTAR":0.00018635023,"MEAN_MOTION_DOT":0.00002745,"MEAN_MOTION_DDOT":0},{"OBJECT_NAME":"ICEYE-X43","OBJECT_ID":"2024-149BZ","EPOCH":"2026-07-21T04:32:51.192960","CLASSIFICATION_TYPE":"U","MEAN_MOTION":14.99778992,"ECCENTRICITY":0.00063388,"INCLINATION":97.6786,"RA_OF_ASC_NODE":278.6947,"ARG_OF_PERICENTER":321.5271,"MEAN_ANOMALY":38.55,"EPHEMERIS_TYPE":0,"NORAD_CAT_ID":60539,"ELEMENT_SET_NO":999,"REV_AT_EPOCH":10521,"BSTAR":0.000096655561,"MEAN_MOTION_DOT":0.00001136,"MEAN_MOTION_DDOT":0},{"OBJECT_NAME":"ICEYE-X39","OBJECT_ID":"2024-149CG","EPOCH":"2026-07-21T03:57:22.348800","CLASSIFICATION_TYPE":"U","MEAN_MOTION":15.00103431,"ECCENTRICITY":0.00067216,"INCLINATION":97.68,"RA_OF_ASC_NODE":278.7333,"ARG_OF_PERICENTER":29.6241,"MEAN_ANOMALY":330.5362,"EPHEMERIS_TYPE":0,"NORAD_CAT_ID":60546,"ELEMENT_SET_NO":999,"REV_AT_EPOCH":10521,"BSTAR":0.00022771019,"MEAN_MOTION_DOT":0.00002781,"MEAN_MOTION_DDOT":0},{"OBJECT_NAME":"ICEYE-X33","OBJECT_ID":"2024-149CJ","EPOCH":"2026-07-21T04:04:45.834816","CLASSIFICATION_TYPE":"U","MEAN_MOTION":15.00919464,"ECCENTRICITY":0.00018343,"INCLINATION":97.7379,"RA_OF_ASC_NODE":281.144,"ARG_OF_PERICENTER":67.8627,"MEAN_ANOMALY":292.2792,"EPHEMERIS_TYPE":0,"NORAD_CAT_ID":60548,"ELEMENT_SET_NO":999,"REV_AT_EPOCH":10530,"BSTAR":0.00025282916,"MEAN_MOTION_DOT":0.0000316,"MEAN_MOTION_DDOT":0}]}
