ICEYE-X2                
1 43800U 18099AU  26202.28906503  .00004987  00000+0  24767-3 0  9993
2 43800  97.4334 255.5337 0010566 174.2614 185.8743 15.18084297417991
ICEYE-X4                
1 44390U 19038D   26202.27954220  .00008730  00000+0  30301-3 0  9991
2 44390  97.8748 237.2116 0013498 176.9057 183.2268 15.29964924387017
ICEYE-X7                
1 46496U 20068L   26202.30460686  .00008412  00000+0  27329-3 0  9990
2 46496  97.7513 170.4023 0006716 188.8945 171.2178 15.32177512320010
ICEYE-X6                
1 46497U 20068M   26202.24112347  .00001527  00000+0  11330-3 0  9997
2 46497  98.0993 197.5473 0006664 352.0832   8.0287 15.04686485318353
ICEYE-X21               
1 55049U 23001AS  26175.21618542  .01585954  23968-5  60214-3 0  9995
2 55049  97.3001 262.6152 0012377 285.9702  74.0225 16.24069885194757
ICEYE-X25               
1 56963U 23084AH  26202.27075359  .00025747  00000+0  28393-3 0  9998
2 56963  97.5918 350.9538 0004648 166.2106 193.9279 15.63078099173297
ICEYE-X31               
1 58288U 23174AJ  26202.23393679  .00013260  00000+0  38890-3 0  9994
2 58288  97.3763 277.9871 0003276 169.5933 190.5379 15.35299101149973
ICEYE-X34               
1 58294U 23174AQ  26201.79572262  .00132125  00000+0  97582-3 0  9993
2 58294  97.3848 294.7895 0002278 229.1915 130.9151 15.72581664151014
ICEYE-X35               
1 58302U 23174AY  26202.30252308  .00044576  00000+0  64876-3 0  9999
2 58302  97.3773 287.8956 0007195  87.6903 272.5175 15.55595490150649
ICEYE-X38               
1 59100U 24043C   26202.24332309  .00003035  00000+0  17529-3 0  9993
2 59100  97.8444 346.9413 0001830   2.0161 358.1076 15.13122992116828
ICEYE-X37               
1 59102U 24043E   26202.12767938  .00002895  00000+0  20100-3 0  9994
2 59102  97.8350 339.6737 0013964 252.0057 107.9647 15.06319386130193
ICEYE-X36               
1 59103U 24043F   26202.17775749  .00002745  00000+0  18635-3 0  9993
2 59103  97.8411 340.8681 0005769 190.0250 170.0862 15.07263807130269
ICEYE-X43               
1 60539U 24149BZ  26202.18948140  .00001136  00000+0  96656-4 0  9996
2 60539  97.6786 278.6947 0006338 321.5271  38.5500 14.99778992105217
ICEYE-X39               
1 60546U 24149CG  26202.16484200  .00002781  00000+0  22771-3 0  9997
2 60546  97.6800 278.7333 0006721  29.6241 330.5362 15.00103431105215
ICEYE-X33               
1 60548U 24149CJ  26202.16997494  .00003160  00000+0  25283-3 0  9996
2 60548  97.7379 281.1440 0001834  67.8627 292.2792 15.00919464105300
